<?xml version="1.0" encoding="UTF-8"?>
<gpx creator="Garmin Connect" version="1.1"
  xsi:schemaLocation="http://www.topografix.com/GPX/1/1 http://www.topografix.com/GPX/11.xsd"
  xmlns:ns3="http://www.garmin.com/xmlschemas/TrackPointExtension/v1"
  xmlns="http://www.topografix.com/GPX/1/1"
  xmlns:xsi="http://www.w3.org/2001/XMLSchema-instance" xmlns:ns2="http://www.garmin.com/xmlschemas/GpxExtensions/v3">
  <metadata>
    <name>Relevos 8k</name>
    <link href="connect.garmin.com">
      <text>Garmin Connect</text>
    </link>
    <time>2026-09-17T08:29:37.000Z</time>
  </metadata>
  <trk>
    <name>Relevos 8k</name>
    <trkseg>
      <trkpt lat="41.63149676285684" lon="-0.8965384215116501">
        <ele>231.02</ele>
      </trkpt>
      <trkpt lat="41.6313211619854" lon="-0.896670101210475">
        <ele>230.89</ele>
      </trkpt>
      <trkpt lat="41.63114547729492" lon="-0.8968019485473633">
        <ele>230.59</ele>
      </trkpt>
      <trkpt lat="41.63120993413031" lon="-0.8970808982849121">
        <ele>230.45</ele>
      </trkpt>
      <trkpt lat="41.6312313079834" lon="-0.8971881866455078">
        <ele>230.3</ele>
      </trkpt>
      <trkpt lat="41.631338596343994" lon="-0.8974456787109375">
        <ele>230.01</ele>
      </trkpt>
      <trkpt lat="41.63148888386786" lon="-0.8975529670715332">
        <ele>229.78</ele>
      </trkpt>
      <trkpt lat="41.63153724744916" lon="-0.8975578285753727">
        <ele>229.49</ele>
      </trkpt>
      <trkpt lat="41.63170337677002" lon="-0.8975744247436523">
        <ele>228.83</ele>
      </trkpt>
      <trkpt lat="41.63189657963812" lon="-0.8974885940551758">
        <ele>228.45</ele>
      </trkpt>
      <trkpt lat="41.63205952383578" lon="-0.8974133245646954">
        <ele>228.22</ele>
      </trkpt>
      <trkpt lat="41.63217552937567" lon="-0.8973598480224609">
        <ele>228.14</ele>
      </trkpt>
      <trkpt lat="41.632372085005045" lon="-0.8973051980137825">
        <ele>228.24</ele>
      </trkpt>
      <trkpt lat="41.632561683654785" lon="-0.8972525596618652">
        <ele>228.65</ele>
      </trkpt>
      <trkpt lat="41.63256176747382" lon="-0.8972525596618652">
        <ele>228.91</ele>
      </trkpt>
      <trkpt lat="41.632689256221056" lon="-0.8972133323550224">
        <ele>229.39</ele>
      </trkpt>
      <trkpt lat="41.632840717211366" lon="-0.8971667289733887">
        <ele>230.16</ele>
      </trkpt>
      <trkpt lat="41.63290509022772" lon="-0.8971452713012695">
        <ele>230.48</ele>
      </trkpt>
      <trkpt lat="41.63299418985844" lon="-0.8970858436077833">
        <ele>230.74</ele>
      </trkpt>
      <trkpt lat="41.633098125457764" lon="-0.8970165252685547">
        <ele>230.97</ele>
      </trkpt>
      <trkpt lat="41.6332483291626" lon="-0.8969306945800781">
        <ele>230.84</ele>
      </trkpt>
      <trkpt lat="41.63334455341101" lon="-0.8968803193420172">
        <ele>230.63</ele>
      </trkpt>
      <trkpt lat="41.63352157920599" lon="-0.8967875316739082">
        <ele>229.99</ele>
      </trkpt>
      <trkpt lat="41.6336989402771" lon="-0.8966946601867676">
        <ele>229.63</ele>
      </trkpt>
      <trkpt lat="41.63369902409613" lon="-0.8966946601867676">
        <ele>229.25</ele>
      </trkpt>
      <trkpt lat="41.63390060886741" lon="-0.8966316282749176">
        <ele>228.89</ele>
      </trkpt>
      <trkpt lat="41.63404234685004" lon="-0.8965873718261719">
        <ele>228.06</ele>
      </trkpt>
      <trkpt lat="41.63419338874519" lon="-0.8965873718261719">
        <ele>227.58</ele>
      </trkpt>
      <trkpt lat="41.63427838124335" lon="-0.8965873718261719">
        <ele>226.88</ele>
      </trkpt>
      <trkpt lat="41.63440704345703" lon="-0.896608829498291">
        <ele>226.51</ele>
      </trkpt>
      <trkpt lat="41.634498070925474" lon="-0.8966429438441992">
        <ele>226.3</ele>
      </trkpt>
      <trkpt lat="41.634578704833984" lon="-0.8966732025146484">
        <ele>226.29</ele>
      </trkpt>
      <trkpt lat="41.63464307785034" lon="-0.8967804908752441">
        <ele>226.44</ele>
      </trkpt>
      <trkpt lat="41.63466830737889" lon="-0.896898340433836">
        <ele>226.7</ele>
      </trkpt>
      <trkpt lat="41.63470753468573" lon="-0.8970808982849121">
        <ele>227.42</ele>
      </trkpt>
      <trkpt lat="41.63472890853882" lon="-0.8972740173339844">
        <ele>228.05</ele>
      </trkpt>
      <trkpt lat="41.63474299013615" lon="-0.897400751709938">
        <ele>228.62</ele>
      </trkpt>
      <trkpt lat="41.63476813584566" lon="-0.8976275660097599">
        <ele>230.05</ele>
      </trkpt>
      <trkpt lat="41.634793281555176" lon="-0.8978533744812012">
        <ele>230.36</ele>
      </trkpt>
      <trkpt lat="41.634813817217946" lon="-0.8979047555476427">
        <ele>230.64</ele>
      </trkpt>
      <trkpt lat="41.634836196899414" lon="-0.8979606628417969">
        <ele>231.01</ele>
      </trkpt>
      <trkpt lat="41.63492202758789" lon="-0.8980679512023926">
        <ele>231.08</ele>
      </trkpt>
      <trkpt lat="41.635175328701735" lon="-0.8980873972177505">
        <ele>231.13</ele>
      </trkpt>
      <trkpt lat="41.63547992706299" lon="-0.8981108665466309">
        <ele>231.01</ele>
      </trkpt>
      <trkpt lat="41.63548001088202" lon="-0.8981108665466309">
        <ele>230.78</ele>
      </trkpt>
      <trkpt lat="41.63564555346966" lon="-0.8980587311089039">
        <ele>230.49</ele>
      </trkpt>
      <trkpt lat="41.635811598971486" lon="-0.8980065956711769">
        <ele>230.01</ele>
      </trkpt>
      <trkpt lat="41.63602097891271" lon="-0.8979407139122486">
        <ele>228.94</ele>
      </trkpt>
      <trkpt lat="41.63623094558716" lon="-0.8978748321533203">
        <ele>228.3</ele>
      </trkpt>
      <trkpt lat="41.63631409406662" lon="-0.8977916836738586">
        <ele>227.84</ele>
      </trkpt>
      <trkpt lat="41.63640260696411" lon="-0.8977031707763672">
        <ele>226.72</ele>
      </trkpt>
      <trkpt lat="41.63645683787763" lon="-0.8974949643015862">
        <ele>226.43</ele>
      </trkpt>
      <trkpt lat="41.63651098497212" lon="-0.8972875960171223">
        <ele>226.2</ele>
      </trkpt>
      <trkpt lat="41.636531352996826" lon="-0.897209644317627">
        <ele>225.97</ele>
      </trkpt>
      <trkpt lat="41.63642406463623" lon="-0.8971238136291504">
        <ele>225.91</ele>
      </trkpt>
      <trkpt lat="41.63631686009467" lon="-0.8969950675964355">
        <ele>226.0</ele>
      </trkpt>
      <trkpt lat="41.63627394475043" lon="-0.8969399984925985">
        <ele>226.09</ele>
      </trkpt>
      <trkpt lat="41.6361665725708" lon="-0.8968019485473633">
        <ele>226.35</ele>
      </trkpt>
      <trkpt lat="41.63607127033174" lon="-0.896697174757719">
        <ele>226.55</ele>
      </trkpt>
      <trkpt lat="41.63595207966864" lon="-0.8965659141540527">
        <ele>226.75</ele>
      </trkpt>
      <trkpt lat="41.635866248980165" lon="-0.8964371681213379">
        <ele>226.74</ele>
      </trkpt>
      <trkpt lat="41.6358229983598" lon="-0.8963896427303553">
        <ele>226.63</ele>
      </trkpt>
      <trkpt lat="41.63565167225897" lon="-0.8962011337280273">
        <ele>226.22</ele>
      </trkpt>
      <trkpt lat="41.63551957346499" lon="-0.8960502594709396">
        <ele>225.84</ele>
      </trkpt>
      <trkpt lat="41.635351264849305" lon="-0.8958578109741211">
        <ele>225.22</ele>
      </trkpt>
      <trkpt lat="41.63535118103027" lon="-0.8958578109741211">
        <ele>225.04</ele>
      </trkpt>
      <trkpt lat="41.63530834950507" lon="-0.8957934379577637">
        <ele>224.84</ele>
      </trkpt>
      <trkpt lat="41.635217824950814" lon="-0.8956864848732948">
        <ele>224.71</ele>
      </trkpt>
      <trkpt lat="41.63521774113178" lon="-0.8956864848732948">
        <ele>224.64</ele>
      </trkpt>
      <trkpt lat="41.635072315111756" lon="-0.8955144882202148">
        <ele>224.71</ele>
      </trkpt>
      <trkpt lat="41.63492211140692" lon="-0.8953213691711426">
        <ele>224.83</ele>
      </trkpt>
      <trkpt lat="41.63492202758789" lon="-0.8953213691711426">
        <ele>224.91</ele>
      </trkpt>
      <trkpt lat="41.634834771975875" lon="-0.8952123206108809">
        <ele>225.09</ele>
      </trkpt>
      <trkpt lat="41.63475045002997" lon="-0.8951067924499512">
        <ele>225.54</ele>
      </trkpt>
      <trkpt lat="41.634545009583235" lon="-0.8948698360472918">
        <ele>225.84</ele>
      </trkpt>
      <trkpt lat="41.63447141647339" lon="-0.8947849273681641">
        <ele>226.62</ele>
      </trkpt>
      <trkpt lat="41.63438558578491" lon="-0.8946990966796875">
        <ele>227.12</ele>
      </trkpt>
      <trkpt lat="41.634321212768555" lon="-0.8946132659912109">
        <ele>227.68</ele>
      </trkpt>
      <trkpt lat="41.634085178375244" lon="-0.8945918083190918">
        <ele>230.03</ele>
      </trkpt>
      <trkpt lat="41.63393497467041" lon="-0.894463062286377">
        <ele>230.74</ele>
      </trkpt>
      <trkpt lat="41.633849227800965" lon="-0.8945274353027344">
        <ele>231.95</ele>
      </trkpt>
      <trkpt lat="41.633682595565915" lon="-0.8946794830262661">
        <ele>232.05</ele>
      </trkpt>
      <trkpt lat="41.633515963330865" lon="-0.8948316983878613">
        <ele>231.98</ele>
      </trkpt>
      <trkpt lat="41.633355701342225" lon="-0.8949780464172363">
        <ele>232.05</ele>
      </trkpt>
      <trkpt lat="41.63320549763739" lon="-0.8951067086309195">
        <ele>232.12</ele>
      </trkpt>
      <trkpt lat="41.63305529393256" lon="-0.895235538482666">
        <ele>232.21</ele>
      </trkpt>
      <trkpt lat="41.633055210113525" lon="-0.895235538482666">
        <ele>232.24</ele>
      </trkpt>
      <trkpt lat="41.63305529393256" lon="-0.895235538482666">
        <ele>232.3</ele>
      </trkpt>
      <trkpt lat="41.632862174883485" lon="-0.8953857421875">
        <ele>232.32</ele>
      </trkpt>
      <trkpt lat="41.63261624984443" lon="-0.8955964632332325">
        <ele>232.39</ele>
      </trkpt>
      <trkpt lat="41.63256176747382" lon="-0.8956432342529297">
        <ele>232.28</ele>
      </trkpt>
      <trkpt lat="41.632357919588685" lon="-0.8958040829747915">
        <ele>232.22</ele>
      </trkpt>
      <trkpt lat="41.63215398788452" lon="-0.8959650993347168">
        <ele>231.9</ele>
      </trkpt>
      <trkpt lat="41.63210101425648" lon="-0.8960180729627609">
        <ele>231.53</ele>
      </trkpt>
      <trkpt lat="41.632046699523926" lon="-0.8960723876953125">
        <ele>230.85</ele>
      </trkpt>
      <trkpt lat="41.63204678334296" lon="-0.8960723876953125">
        <ele>230.58</ele>
      </trkpt>
      <trkpt lat="41.631817957386374" lon="-0.8962629921734333">
        <ele>230.2</ele>
      </trkpt>
      <trkpt lat="41.63178929127753" lon="-0.8962869644165039">
        <ele>230.1</ele>
      </trkpt>
      <trkpt lat="41.63167613558471" lon="-0.8963887207210064">
        <ele>230.2</ele>
      </trkpt>
    </trkseg>
  </trk>
</gpx>
